[{"OBJECT_NAME":"STARLINK-5174","OBJECT_ID":"2022-136S","EPOCH":"2026-03-09T22:21:06.260544","MEAN_MOTION":15.08838744,"ECCENTRICITY":0.00015385,"INCLINATION":53.2217,"RA_OF_ASC_NODE":342.8142,"ARG_OF_PERICENTER":100.5799,"MEAN_ANOMALY":259.5367,"EPHEMERIS_TYPE":0,"CLASSIFICATION_TYPE":"U","NORAD_CAT_ID":54067,"ELEMENT_SET_NO":999,"REV_AT_EPOCH":18688,"BSTAR":-8.5622133e-5,"MEAN_MOTION_DOT":-1.65e-5,"MEAN_MOTION_DDOT":0},{"OBJECT_NAME":"NOAA 17 DEB","OBJECT_ID":"2002-032DT","EPOCH":"2026-03-08T22:47:54.624192","MEAN_MOTION":15.08678856,"ECCENTRICITY":0.0018728,"INCLINATION":98.77,"RA_OF_ASC_NODE":121.3607,"ARG_OF_PERICENTER":298.7191,"MEAN_ANOMALY":61.2152,"EPHEMERIS_TYPE":0,"CLASSIFICATION_TYPE":"U","NORAD_CAT_ID":49489,"ELEMENT_SET_NO":999,"REV_AT_EPOCH":24229,"BSTAR":0.0068247859,"MEAN_MOTION_DOT":0.00108865,"MEAN_MOTION_DDOT":0}]
